{"type": "FeatureCollection", "features": [{"type": "Feature", "properties": {"norad_id": 2807, "name": "OPS 7218 (TRANSIT 16)", "group": "nnss", "lat": 14.805157652321048, "lon": -5.789145500846031, "alt_km": 1075.3886858275673, "timestamp": "2025-12-09T11:33:55.068165+00:00", "meta": {"OBJECT_NAME": "OPS 7218 (TRANSIT 16)", "OBJECT_ID": "1967-048A", "EPOCH": "2025-12-09T01:05:23.708256", "MEAN_MOTION": 13.5072118, "ECCENTRICITY": 0.0021798, "INCLINATION": 89.6731, "RA_OF_ASC_NODE": 354.1388, "ARG_OF_PERICENTER": 123.9796, "MEAN_ANOMALY": 290.0379, "EPHEMERIS_TYPE": 0, "CLASSIFICATION_TYPE": "U", "NORAD_CAT_ID": 2807, "ELEMENT_SET_NO": 999, "REV_AT_EPOCH": 88226, "BSTAR": 0.00020521, "MEAN_MOTION_DOT": 1.43e-06, "MEAN_MOTION_DDOT": 0}, "tle": {"line1": "1 02807U 67048A   25343.04541329  .00000143  00000+0  20521-3 0  9997", "line2": "2 02807  89.6731 354.1388 0021798 123.9796 290.0379 13.50721180882263"}}, "geometry": {"type": "Point", "coordinates": [-5.789145500846031, 14.805157652321048]}}, {"type": "Feature", "properties": {"norad_id": 2965, "name": "OPS 4947 (TRANSIT 17)", "group": "nnss", "lat": 47.71957064341738, "lon": 25.509733304727725, "alt_km": 1088.1765622588691, "timestamp": "2025-12-09T11:33:55.068187+00:00", "meta": {"OBJECT_NAME": "OPS 4947 (TRANSIT 17)", "OBJECT_ID": "1967-092A", "EPOCH": "2025-12-09T04:32:40.270272", "MEAN_MOTION": 13.53452129, "ECCENTRICITY": 0.0045987, "INCLINATION": 89.2499, "RA_OF_ASC_NODE": 24.7065, "ARG_OF_PERICENTER": 245.1537, "MEAN_ANOMALY": 177.9997, "EPHEMERIS_TYPE": 0, "CLASSIFICATION_TYPE": "U", "NORAD_CAT_ID": 2965, "ELEMENT_SET_NO": 999, "REV_AT_EPOCH": 87049, "BSTAR": 0.00022948, "MEAN_MOTION_DOT": 1.66e-06, "MEAN_MOTION_DDOT": 0}, "tle": {"line1": "1 02965U 67092A   25343.18935498  .00000166  00000+0  22948-3 0  9990", "line2": "2 02965  89.2499  24.7065 0045987 245.1537 177.9997 13.53452129870491"}}, "geometry": {"type": "Point", "coordinates": [25.509733304727725, 47.71957064341738]}}, {"type": "Feature", "properties": {"norad_id": 3133, "name": "OPS 7034 (TRANSIT 18)", "group": "nnss", "lat": -39.59440837370772, "lon": 93.6067016647027, "alt_km": 1031.5066507547517, "timestamp": "2025-12-09T11:33:55.068200+00:00", "meta": {"OBJECT_NAME": "OPS 7034 (TRANSIT 18)", "OBJECT_ID": "1968-012A", "EPOCH": "2025-12-08T20:34:01.224768", "MEAN_MOTION": 13.51564436, "ECCENTRICITY": 0.00734771, "INCLINATION": 90.0276, "RA_OF_ASC_NODE": 273.6278, "ARG_OF_PERICENTER": 180.4121, "MEAN_ANOMALY": 239.6766, "EPHEMERIS_TYPE": 0, "CLASSIFICATION_TYPE": "U", "NORAD_CAT_ID": 3133, "ELEMENT_SET_NO": 999, "REV_AT_EPOCH": 56866, "BSTAR": 0.00029762797, "MEAN_MOTION_DOT": 2.07e-06, "MEAN_MOTION_DDOT": 0}, "tle": {"line1": "1 03133U 68012A   25342.85695862  .00000207  00000+0  29763-3 0  9990", "line2": "2 03133  90.0276 273.6278 0073477 180.4121 239.6766 13.51564436568664"}}, "geometry": {"type": "Point", "coordinates": [93.6067016647027, -39.59440837370772]}}, {"type": "Feature", "properties": {"norad_id": 4507, "name": "NNSS 19 (TRANSIT 19)", "group": "nnss", "lat": -11.639061216990282, "lon": 54.530418957826484, "alt_km": 1116.2430497767045, "timestamp": "2025-12-09T11:33:55.068212+00:00", "meta": {"OBJECT_NAME": "NNSS 19 (TRANSIT 19)", "OBJECT_ID": "1970-067A", "EPOCH": "2025-12-09T03:29:41.935200", "MEAN_MOTION": 13.51313754, "ECCENTRICITY": 0.0170767, "INCLINATION": 90.0057, "RA_OF_ASC_NODE": 234.5314, "ARG_OF_PERICENTER": 303.8805, "MEAN_ANOMALY": 54.62, "EPHEMERIS_TYPE": 0, "CLASSIFICATION_TYPE": "U", "NORAD_CAT_ID": 4507, "ELEMENT_SET_NO": 999, "REV_AT_EPOCH": 72173, "BSTAR": 0.0002878, "MEAN_MOTION_DOT": 2.12e-06, "MEAN_MOTION_DDOT": 0}, "tle": {"line1": "1 04507U 70067A   25343.14562425  .00000212  00000+0  28780-3 0  9994", "line2": "2 04507  90.0057 234.5314 0170767 303.8805  54.6200 13.51313754721736"}}, "geometry": {"type": "Point", "coordinates": [54.530418957826484, -11.639061216990282]}}, {"type": "Feature", "properties": {"norad_id": 6909, "name": "NNSS 20 (TRANSIT 20)", "group": "nnss", "lat": 28.757826286065256, "lon": -104.81811223072188, "alt_km": 932.4928820486703, "timestamp": "2025-12-09T11:33:55.068224+00:00", "meta": {"OBJECT_NAME": "NNSS 20 (TRANSIT 20)", "OBJECT_ID": "1973-081A", "EPOCH": "2025-12-09T04:25:21.173376", "MEAN_MOTION": 13.7143159, "ECCENTRICITY": 0.0156609, "INCLINATION": 89.8562, "RA_OF_ASC_NODE": 255.1074, "ARG_OF_PERICENTER": 88.8414, "MEAN_ANOMALY": 273.0686, "EPHEMERIS_TYPE": 0, "CLASSIFICATION_TYPE": "U", "NORAD_CAT_ID": 6909, "ELEMENT_SET_NO": 999, "REV_AT_EPOCH": 80312, "BSTAR": 0.00032094, "MEAN_MOTION_DOT": 3.27e-06, "MEAN_MOTION_DDOT": 0}, "tle": {"line1": "1 06909U 73081A   25343.18427284  .00000327  00000+0  32094-3 0  9998", "line2": "2 06909  89.8562 255.1074 0156609  88.8414 273.0686 13.71431590803128"}}, "geometry": {"type": "Point", "coordinates": [-104.81811223072188, 28.757826286065256]}}, {"type": "Feature", "properties": {"norad_id": 10457, "name": "TRANSAT", "group": "nnss", "lat": -46.3210639149748, "lon": -100.9189324512758, "alt_km": 1066.3589568434963, "timestamp": "2025-12-09T11:33:55.068235+00:00", "meta": {"OBJECT_NAME": "TRANSAT", "OBJECT_ID": "1977-106A", "EPOCH": "2025-12-08T20:48:25.255872", "MEAN_MOTION": 13.48942788, "ECCENTRICITY": 0.00250257, "INCLINATION": 89.6481, "RA_OF_ASC_NODE": 78.7341, "ARG_OF_PERICENTER": 200.8662, "MEAN_ANOMALY": 280.8023, "EPHEMERIS_TYPE": 0, "CLASSIFICATION_TYPE": "U", "NORAD_CAT_ID": 10457, "ELEMENT_SET_NO": 999, "REV_AT_EPOCH": 36691, "BSTAR": 0.00022884886, "MEAN_MOTION_DOT": 1.54e-06, "MEAN_MOTION_DDOT": 0}, "tle": {"line1": "1 10457U 77106A   25342.86695898  .00000154  00000+0  22885-3 0  9990", "line2": "2 10457  89.6481  78.7341 0025025 200.8662 280.8023 13.48942788366915"}}, "geometry": {"type": "Point", "coordinates": [-100.9189324512758, -46.3210639149748]}}, {"type": "Feature", "properties": {"norad_id": 12458, "name": "NOVA 1", "group": "nnss", "lat": 68.06979148145919, "lon": 91.79797994790096, "alt_km": 1157.0609476946865, "timestamp": "2025-12-09T11:33:55.068246+00:00", "meta": {"OBJECT_NAME": "NOVA 1", "OBJECT_ID": "1981-044A", "EPOCH": "2025-12-08T21:17:39.460992", "MEAN_MOTION": 13.23277871, "ECCENTRICITY": 0.0015797, "INCLINATION": 89.8524, "RA_OF_ASC_NODE": 91.4396, "ARG_OF_PERICENTER": 113.4521, "MEAN_ANOMALY": 3.7468, "EPHEMERIS_TYPE": 0, "CLASSIFICATION_TYPE": "U", "NORAD_CAT_ID": 12458, "ELEMENT_SET_NO": 999, "REV_AT_EPOCH": 15135, "BSTAR": 0.000247, "MEAN_MOTION_DOT": 1.14e-06, "MEAN_MOTION_DDOT": 0}, "tle": {"line1": "1 12458U 81044A   25342.88726228  .00000114  00000+0  24700-3 0  9997", "line2": "2 12458  89.8524  91.4396 0015797 113.4521   3.7468 13.23277871151350"}}, "geometry": {"type": "Point", "coordinates": [91.79797994790096, 68.06979148145919]}}, {"type": "Feature", "properties": {"norad_id": 15362, "name": "NOVA 3", "group": "nnss", "lat": -56.62504359985914, "lon": 80.682130182516, "alt_km": 1161.8512682920718, "timestamp": "2025-12-09T11:33:55.068257+00:00", "meta": {"OBJECT_NAME": "NOVA 3", "OBJECT_ID": "1984-110A", "EPOCH": "2025-12-09T04:41:35.634912", "MEAN_MOTION": 13.23043908, "ECCENTRICITY": 0.0030762, "INCLINATION": 90.1223, "RA_OF_ASC_NODE": 80.493, "ARG_OF_PERICENTER": 341.9796, "MEAN_ANOMALY": 38.6613, "EPHEMERIS_TYPE": 0, "CLASSIFICATION_TYPE": "U", "NORAD_CAT_ID": 15362, "ELEMENT_SET_NO": 999, "REV_AT_EPOCH": 98652, "BSTAR": 0.00019191, "MEAN_MOTION_DOT": 8.9e-07, "MEAN_MOTION_DDOT": 0}, "tle": {"line1": "1 15362U 84110A   25343.19555133  .00000089  00000+0  19191-3 0  9990", "line2": "2 15362  90.1223  80.4930 0030762 341.9796  38.6613 13.23043908986527"}}, "geometry": {"type": "Point", "coordinates": [80.682130182516, -56.62504359985914]}}, {"type": "Feature", "properties": {"norad_id": 15935, "name": "OSCAR 30", "group": "nnss", "lat": -53.112793320723, "lon": -80.42612318164966, "alt_km": 1227.5413618816938, "timestamp": "2025-12-09T11:33:55.068268+00:00", "meta": {"OBJECT_NAME": "OSCAR 30", "OBJECT_ID": "1985-066A", "EPOCH": "2025-12-08T20:34:52.400352", "MEAN_MOTION": 13.36077407, "ECCENTRICITY": 0.01694116, "INCLINATION": 90.1649, "RA_OF_ASC_NODE": 99.7836, "ARG_OF_PERICENTER": 94.7382, "MEAN_ANOMALY": 15.8226, "EPHEMERIS_TYPE": 0, "CLASSIFICATION_TYPE": "U", "NORAD_CAT_ID": 15935, "ELEMENT_SET_NO": 999, "REV_AT_EPOCH": 96401, "BSTAR": 0.0002840445, "MEAN_MOTION_DOT": 1.68e-06, "MEAN_MOTION_DDOT": 0}, "tle": {"line1": "1 15935U 85066A   25342.85755093  .00000168  00000+0  28404-3 0  9991", "line2": "2 15935  90.1649  99.7836 0169411  94.7382  15.8226 13.36077407964013"}}, "geometry": {"type": "Point", "coordinates": [-80.42612318164966, -53.112793320723]}}, {"type": "Feature", "properties": {"norad_id": 15936, "name": "OSCAR 24", "group": "nnss", "lat": -52.22403854271327, "lon": 92.47859440837632, "alt_km": 1243.467890700952, "timestamp": "2025-12-09T11:33:55.068279+00:00", "meta": {"OBJECT_NAME": "OSCAR 24", "OBJECT_ID": "1985-066B", "EPOCH": "2025-12-09T04:57:02.871072", "MEAN_MOTION": 13.35934984, "ECCENTRICITY": 0.017046, "INCLINATION": 90.1788, "RA_OF_ASC_NODE": 92.2429, "ARG_OF_PERICENTER": 100.1995, "MEAN_ANOMALY": 323.8882, "EPHEMERIS_TYPE": 0, "CLASSIFICATION_TYPE": "U", "NORAD_CAT_ID": 15936, "ELEMENT_SET_NO": 999, "REV_AT_EPOCH": 96596, "BSTAR": 0.00022743, "MEAN_MOTION_DOT": 1.37e-06, "MEAN_MOTION_DDOT": 0}, "tle": {"line1": "1 15936U 85066B   25343.20628323  .00000137  00000+0  22743-3 0  9993", "line2": "2 15936  90.1788  92.2429 0170460 100.1995 323.8882 13.35934984965968"}}, "geometry": {"type": "Point", "coordinates": [92.47859440837632, -52.22403854271327]}}]}